      2.10          N: GNSS NAV DATA                        RINEX VERSION / TYPE
fic2rin                                 05/23/2022 00:17:31 PGM / RUN BY / DATE
                                                            END OF HEADER
8  22  5 22  1 59 44.0 -.689756125212D-04 -.147792889038D-11  .000000000000D+00
     .750000000000D+02  .685625000000D+02  .420624663563D-08  .134029974128D+01
     .357441604137D-05  .744482188020D-02  .805780291557D-05  .515376675034D+04
     .718400000000D+04 -.372529029846D-07  .153947948148D+01  .838190317154D-07
     .963416912079D+00  .225937500000D+03  .167700452460D+00 -.793640201157D-08
    -.154292141173D-09  .100000000000D+01  .221100000000D+04  .000000000000D+00
     .240000000000D+01  .000000000000D+00  .512227416039D-08  .750000000000D+02
     .000000000000D+00  .400000000000D+01
24 22  5 22 14  0  0.0  .236388295889D-03 -.716227077646D-11  .000000000000D+00
     .187000000000D+03  .240000000000D+02  .536343769442D-08 -.510108307807D+00
     .148452818394D-05  .124752363190D-01  .839307904243D-05  .515368473625D+04
     .504000000000D+05  .465661287308D-07 -.612865663263D+00  .160187482834D-06
     .934354089975D+00  .207187500000D+03  .815626776141D+00 -.852392648432D-08
     .324656380384D-09  .100000000000D+01  .221100000000D+04  .000000000000D+00
     .240000000000D+01  .000000000000D+00  .279396772385D-08  .187000000000D+03
     .432000000000D+05  .400000000000D+01
18 22  5 22 14  0  0.0  .163286924362D-03 -.102318153949D-10  .000000000000D+00
     .130000000000D+02  .306562500000D+02  .418874590665D-08 -.457951915033D+00
     .146031379700D-05  .230179855134D-02  .544264912605D-05  .515373735237D+04
     .504000000000D+05  .391155481339D-07  .262772337065D+01 -.316649675369D-07
     .971729427654D+00  .283218750000D+03  .301248820204D+01 -.807962226298D-08
    -.500020827875D-11  .100000000000D+01  .221100000000D+04  .000000000000D+00
     .240000000000D+01  .000000000000D+00 -.838190317154D-08  .781000000000D+03
     .432000000000D+05  .400000000000D+01
14 22  5 22 14  0  0.0 -.109337735921D-03 -.147792889038D-11  .000000000000D+00
     .184000000000D+03  .188125000000D+02  .503378110576D-08 -.211882036105D+01
     .922009348869D-06  .188332784455D-02  .712461769581D-05  .515365358925D+04
     .504000000000D+05  .186264514923D-08  .551478576325D+00 -.745058059692D-07
     .952875109770D+00  .240343750000D+03  .310703503072D+01 -.823284293095D-08
    -.284297556420D-09  .100000000000D+01  .221100000000D+04  .000000000000D+00
     .240000000000D+01  .000000000000D+00 -.791624188423D-08  .440000000000D+03
     .432000000000D+05  .400000000000D+01
11 22  5 22 14  0  0.0 -.219698995352D-04  .420641299570D-11  .000000000000D+00
     .420000000000D+02  .416562500000D+02  .453126017375D-08  .137518962064D+01
     .218860805035D-05  .384268118069D-03  .486336648464D-05  .515358048439D+04
     .504000000000D+05  .000000000000D+00  .266284652986D+01 -.260770320892D-07
     .963105746477D+00  .286156250000D+03  .280238403624D+01 -.830213153139D-08
     .732173355102D-10  .100000000000D+01  .221100000000D+04  .000000000000D+00
     .240000000000D+01  .630000000000D+02 -.838190317154D-08  .298000000000D+03
     .432000000000D+05  .400000000000D+01
28 22  5 22 14  0  0.0  .353293027729D-03 -.727595761418D-11  .000000000000D+00
     .790000000000D+02  .166250000000D+02  .461162066394D-08  .185071842325D+01
     .722706317902D-06  .165690375725D-01  .697374343872D-05  .515367546654D+04
     .504000000000D+05  .335276126862D-06  .606278473772D+00 -.115483999252D-06
     .968517921630D+00  .246500000000D+03 -.127787280485D+01 -.781925427475D-08
    -.363943731146D-09  .100000000000D+01  .221100000000D+04  .000000000000D+00
     .340000000000D+01  .630000000000D+02 -.111758708954D-07  .790000000000D+02
     .432000000000D+05  .400000000000D+01
6  22  5 22 16  0  0.0  .313353724778D-03  .147792889038D-10  .000000000000D+00
     .800000000000D+01  .444687500000D+02  .399766651886D-08  .459410565780D+00
     .220537185669D-05  .254810124170D-02  .520050525665D-05  .515372861099D+04
     .576000000000D+05  .186264514923D-07  .261300179196D+01 -.726431608200D-07
     .987251992037D+00  .295375000000D+03 -.854297262990D+00 -.803319175754D-08
     .710743891050D-10  .100000000000D+01  .221100000000D+04  .000000000000D+00
     .240000000000D+01  .000000000000D+00  .372529029846D-08  .800000000000D+01
     .504000000000D+05  .400000000000D+01
5  22  5 22 16  0  0.0 -.827750191092D-04 -.136424205266D-11  .000000000000D+00
     .920000000000D+02 -.723437500000D+02  .460983487527D-08  .288334702394D+01
    -.374950468540D-05  .598071899731D-02  .426732003689D-05  .515372533226D+04
     .576000000000D+05  .614672899246D-07 -.266995044688D+01  .931322574615D-08
     .960956890980D+00  .296875000000D+03  .102573333821D+01 -.823034282681D-08
    -.103218585183D-09  .100000000000D+01  .221100000000D+04  .000000000000D+00
     .240000000000D+01  .000000000000D+00 -.111758708954D-07  .920000000000D+02
     .504000000000D+05  .400000000000D+01
3  22  5 22 16  0  0.0 -.253348145634D-03 -.133013600134D-10  .000000000000D+00
     .490000000000D+02 -.697812500000D+02  .434910972931D-08 -.879713657914D+00
    -.372901558876D-05  .417075480800D-02  .518001616001D-05  .515362104988D+04
     .576000000000D+05  .745058059692D-08 -.262827541596D+01  .782310962677D-07
     .973924802483D+00  .284500000000D+03  .959402441043D+00 -.815319675623D-08
    -.167864135072D-09  .100000000000D+01  .221100000000D+04  .000000000000D+00
     .240000000000D+01  .000000000000D+00  .186264514923D-08  .490000000000D+02
     .504000000000D+05  .400000000000D+01
2  22  5 22 16  0  0.0 -.653178896755D-03  .113686837722D-12  .000000000000D+00
     .610000000000D+02  .482500000000D+02  .460269172058D-08  .387533223914D+00
     .249594449997D-05  .204172370723D-01  .596791505814D-05  .515366684532D+04
     .576000000000D+05 -.201165676117D-06  .253001943602D+01 -.176951289177D-06
     .966009981187D+00  .273812500000D+03 -.141747685352D+01 -.863143096232D-08
     .275011455331D-10  .100000000000D+01  .221100000000D+04  .000000000000D+00
     .240000000000D+01  .000000000000D+00 -.176951289177D-07  .610000000000D+02
     .504000000000D+05  .400000000000D+01
1  22  5 22 16  0  0.0  .357405748218D-03 -.818545231596D-11  .000000000000D+00
     .510000000000D+02  .362500000000D+02  .410481383912D-08  .229956325484D+00
     .212155282497D-05  .119255761383D-01  .487454235554D-05  .515366374588D+04
     .576000000000D+05 -.465661287308D-07  .262127801400D+01  .193715095520D-06
     .987913429965D+00  .297156250000D+03  .908986141047D+00 -.817284043161D-08
    -.642883921553D-11  .100000000000D+01  .221100000000D+04  .000000000000D+00
     .240000000000D+01  .000000000000D+00  .512227416039D-08  .510000000000D+02
     .504000000000D+05  .400000000000D+01
4  22  5 22 16  0  0.0 -.164783559740D-03  .363797880709D-11  .000000000000D+00
     .144000000000D+03 -.471875000000D+02  .431125100948D-08  .197253948844D+01
    -.246055424213D-05  .182806665543D-02  .100955367088D-04  .515361572266D+04
     .576000000000D+05 -.279396772385D-07 -.154676072466D+01 -.689178705215D-07
     .960991136430D+00  .185531250000D+03 -.296345836803D+01 -.783961226560D-08
     .696457581682D-10  .100000000000D+01  .221100000000D+04  .000000000000D+00
     .240000000000D+01  .000000000000D+00 -.465661287308D-08  .912000000000D+03
     .504000000000D+05  .400000000000D+01
23 22  5 22 16  0  0.0 -.235168263316D-04 -.238742359215D-11  .000000000000D+00
     .450000000000D+02 -.605312500000D+02  .438553981819D-08 -.517043055913D+00
    -.327825546265D-05  .216860882938D-02  .479817390442D-05  .515370913696D+04
     .576000000000D+05  .160187482834D-06 -.265636827656D+01 -.894069671631D-07
     .968824215714D+00  .296250000000D+03  .300315871263D+01 -.814962517889D-08
    -.171792870148D-09  .100000000000D+01  .221100000000D+04  .000000000000D+00
     .240000000000D+01  .000000000000D+00 -.838190317154D-08  .450000000000D+02
     .504000000000D+05  .400000000000D+01
16 22  5 22 16  0  0.0 -.503038056195D-03 -.318323145621D-11  .000000000000D+00
     .290000000000D+02  .172812500000D+02  .457483341732D-08 -.290496921501D+01
     .661239027977D-06  .127334691351D-01  .705197453499D-05  .515365180969D+04
     .576000000000D+05 -.335276126862D-07  .602782254632D+00 -.303611159325D-06
     .969347514678D+00  .249562500000D+03  .728856056329D+00 -.790211486909D-08
    -.210723063176D-09  .100000000000D+01  .221100000000D+04  .000000000000D+00
     .240000000000D+01  .000000000000D+00 -.102445483208D-07  .290000000000D+02
     .504000000000D+05  .400000000000D+01
29 22  5 22 16  0  0.0 -.516311265528D-03 -.386535248253D-11  .000000000000D+00
     .250000000000D+02  .407500000000D+02  .408588447920D-08  .254970259209D+01
     .230222940445D-05  .216515501961D-02  .928528606892D-05  .515370957184D+04
     .576000000000D+05  .819563865662D-07  .163571118363D+01  .316649675369D-07
     .980687643085D+00  .210281250000D+03  .226923132936D+01 -.785747015231D-08
    -.198936857947D-09  .100000000000D+01  .221100000000D+04  .000000000000D+00
     .340000000000D+01  .000000000000D+00 -.102445483208D-07  .250000000000D+02
     .504000000000D+05  .400000000000D+01
30 22  5 22 16  0  0.0 -.528841279447D-03 -.136424205266D-11  .000000000000D+00
     .200000000000D+02  .302187500000D+02  .525736184737D-08 -.452376030569D+00
     .173598527908D-05  .584223843180D-02  .777468085289D-05  .515376077080D+04
     .576000000000D+05  .100582838058D-06 -.516892060823D+00  .931322574615D-07
     .936072189244D+00  .215031250000D+03 -.269033490832D+01 -.842392231875D-08
     .372515516767D-09  .100000000000D+01  .221100000000D+04  .000000000000D+00
     .240000000000D+01  .000000000000D+00  .372529029846D-08  .200000000000D+02
     .504000000000D+05  .400000000000D+01
